start=new Date('2022-12-11T00:00:00.000Z').valueOf();
sats=[{"RA_OF_ASC_NODE":"145.9888","MEAN_MOTION":"15.06391305","REF_FRAME":"TEME","LAUNCH_DATE":"2019-11-11","SEMIMAJOR_AXIS":"6925.375","TIME_SYSTEM":"UTC","INCLINATION":"53.0550","DECAY_DATE":null,"GP_ID":"219974183","BSTAR":"0.00004438000000","CLASSIFICATION_TYPE":"U","PERIOD":"95.593","TLE_LINE1":"1 44760U 19074AZ  22344.76025906  .00000379  00000-0  44380-4 0  9994","ARG_OF_PERICENTER":"60.7921","ECCENTRICITY":"0.00018930","FILE":"3688965","MEAN_MOTION_DOT":"0.00000379","NORAD_CAT_ID":"44760","MEAN_ELEMENT_THEORY":"SGP4","REV_AT_EPOCH":"16960","MEAN_ANOMALY":"299.3257","PERIAPSIS":"545.929","MEAN_MOTION_DDOT":"0.0000000000000","APOAPSIS":"548.551","ELEMENT_SET_NO":"999","EPOCH":"2022-12-10T18:14:46.382784","COUNTRY_CODE":"US","OBJECT_ID":"2019-074AZ","SITE":"AFETR","OBJECT_NAME":"STARLINK-1055","TLE_LINE2":"2 44760  53.0550 145.9888 0001893  60.7921 299.3257 15.06391305169602","CENTER_NAME":"EARTH","EPHEMERIS_TYPE":"0","OBJECT_TYPE":"PAYLOAD","RCS_SIZE":"LARGE"},{"TLE_LINE2":"2 44761  53.0547 145.9430 0001466  64.0978 296.0162 15.06403454169605","OBJECT_ID":"2019-074BA","SITE":"AFETR","OBJECT_NAME":"STARLINK-1056","COUNTRY_CODE":"US","EPOCH":"2022-12-10T18:30:40.432320","ELEMENT_SET_NO":"999","MEAN_MOTION_DDOT":"0.0000000000000","APOAPSIS":"548.218","RCS_SIZE":"LARGE","OBJECT_TYPE":"PAYLOAD","EPHEMERIS_TYPE":"0","CENTER_NAME":"EARTH","GP_ID":"219972932","BSTAR":"-0.00037784000000","CLASSIFICATION_TYPE":"U","INCLINATION":"53.0547","DECAY_DATE":null,"TIME_SYSTEM":"UTC","LAUNCH_DATE":"2019-11-11","SEMIMAJOR_AXIS":"6925.338","MEAN_MOTION":"15.06403454","RA_OF_ASC_NODE":"145.9430","REF_FRAME":"TEME","MEAN_ANOMALY":"296.0162","PERIAPSIS":"546.188","REV_AT_EPOCH":"16960","FILE":"3688965","MEAN_MOTION_DOT":"-0.00005905","NORAD_CAT_ID":"44761","MEAN_ELEMENT_THEORY":"SGP4","ECCENTRICITY":"0.00014660","ARG_OF_PERICENTER":"64.0978","PERIOD":"95.592","TLE_LINE1":"1 44761U 19074BA  22344.77130130 -.00005905  00000-0 -37784-3 0  9993"},{"PERIOD":"95.593","TLE_LINE1":"1 44762U 19074BB  22344.70679547  .00000096  00000-0  25322-4 0  9997","ARG_OF_PERICENTER":"79.2765","ECCENTRICITY":"0.00011760","MEAN_ELEMENT_THEORY":"SGP4","FILE":"3688965","MEAN_MOTION_DOT":"0.00000096","NORAD_CAT_ID":"44762","REV_AT_EPOCH":"16986","PERIAPSIS":"546.442","MEAN_ANOMALY":"280.8356","REF_FRAME":"TEME","RA_OF_ASC_NODE":"126.2235","MEAN_MOTION":"15.06386006","SEMIMAJOR_AXIS":"6925.391","LAUNCH_DATE":"2019-11-11","TIME_SYSTEM":"UTC","DECAY_DATE":null,"INCLINATION":"53.0550","BSTAR":"0.00002532200000","CLASSIFICATION_TYPE":"U","GP_ID":"219973182","CENTER_NAME":"EARTH","EPHEMERIS_TYPE":"0","OBJECT_TYPE":"PAYLOAD","RCS_SIZE":"LARGE","APOAPSIS":"548.071","MEAN_MOTION_DDOT":"0.0000000000000","ELEMENT_SET_NO":"999","EPOCH":"2022-12-10T16:57:47.128608","COUNTRY_CODE":"US","SITE":"AFETR","OBJECT_NAME":"STARLINK-1057","OBJECT_ID":"2019-074BB","TLE_LINE2":"2 44762  53.0550 126.2235 0001176  79.2765 280.8356 15.06386006169862"},{"ARG_OF_PERICENTER":"91.4274","PERIOD":"95.592","TLE_LINE1":"1 44763U 19074BC  22344.72611936  .00000727  00000-0  67676-4 0  9997","ECCENTRICITY":"0.00010370","FILE":"3688965","MEAN_MOTION_DOT":"0.00000727","NORAD_CAT_ID":"44763","MEAN_ELEMENT_THEORY":"SGP4","PERIAPSIS":"546.494","MEAN_ANOMALY":"268.6834","REV_AT_EPOCH":"16959","MEAN_MOTION":"15.06400357","RA_OF_ASC_NODE":"146.1185","REF_FRAME":"TEME","TIME_SYSTEM":"UTC","LAUNCH_DATE":"2019-11-11","SEMIMAJOR_AXIS":"6925.347","GP_ID":"219974433","BSTAR":"0.00006767600000","CLASSIFICATION_TYPE":"U","INCLINATION":"53.0550","DECAY_DATE":null,"CENTER_NAME":"EARTH","EPHEMERIS_TYPE":"0","OBJECT_TYPE":"PAYLOAD","RCS_SIZE":"LARGE","ELEMENT_SET_NO":"999","MEAN_MOTION_DDOT":"0.0000000000000","APOAPSIS":"547.931","COUNTRY_CODE":"US","EPOCH":"2022-12-10T17:25:36.712704","OBJECT_ID":"2019-074BC","SITE":"AFETR","OBJECT_NAME":"STARLINK-1058","TLE_LINE2":"2 44763  53.0550 146.1185 0001037  91.4274 268.6834 15.06400357169596"},{"TLE_LINE2":"2 44764  53.0567 123.7275 0002991 187.5072 172.5875 15.11431575169892","OBJECT_NAME":"STARLINK-1059","SITE":"AFETR","OBJECT_ID":"2019-074BD","COUNTRY_CODE":"US","EPOCH":"2022-12-10T15:02:30.538176","ELEMENT_SET_NO":"999","APOAPSIS":"533.902","MEAN_MOTION_DDOT":"0.0000000000000","RCS_SIZE":"LARGE","OBJECT_TYPE":"PAYLOAD","EPHEMERIS_TYPE":"0","CENTER_NAME":"EARTH","BSTAR":"0.00083332000000","CLASSIFICATION_TYPE":"U","GP_ID":"219974684","DECAY_DATE":null,"INCLINATION":"53.0567","TIME_SYSTEM":"UTC","SEMIMAJOR_AXIS":"6909.970","LAUNCH_DATE":"2019-11-11","REF_FRAME":"TEME","RA_OF_ASC_NODE":"123.7275","MEAN_MOTION":"15.11431575","MEAN_ANOMALY":"172.5875","PERIAPSIS":"529.769","REV_AT_EPOCH":"16989","MEAN_ELEMENT_THEORY":"SGP4","FILE":"3688965","NORAD_CAT_ID":"44764","MEAN_MOTION_DOT":"0.00013979","ECCENTRICITY":"0.00029910","ARG_OF_PERICENTER":"187.5072","TLE_LINE1":"1 44764U 19074BD  22344.62674234  .00013979  00000-0  83332-3 0  9996","PERIOD":"95.274"},{"RA_OF_ASC_NODE":"126.1536","MEAN_MOTION":"15.06393067","REF_FRAME":"TEME","LAUNCH_DATE":"2019-11-11","SEMIMAJOR_AXIS":"6925.370","TIME_SYSTEM":"UTC","INCLINATION":"53.0549","DECAY_DATE":null,"GP_ID":"219973433","BSTAR":"-0.00000587190000","CLASSIFICATION_TYPE":"U","PERIOD":"95.593","TLE_LINE1":"1 44765U 19074BE  22344.72153662 -.00000369  00000-0 -58719-5 0  9999","ARG_OF_PERICENTER":"64.3724","ECCENTRICITY":"0.00016350","MEAN_MOTION_DOT":"-0.00000369","FILE":"3688965","NORAD_CAT_ID":"44765","MEAN_ELEMENT_THEORY":"SGP4","REV_AT_EPOCH":"16986","MEAN_ANOMALY":"295.7434","PERIAPSIS":"546.103","MEAN_MOTION_DDOT":"0.0000000000000","APOAPSIS":"548.367","ELEMENT_SET_NO":"999","EPOCH":"2022-12-10T17:19:00.763968","COUNTRY_CODE":"US","OBJECT_ID":"2019-074BE","SITE":"AFETR","OBJECT_NAME":"STARLINK-1060","TLE_LINE2":"2 44765  53.0549 126.1536 0001635  64.3724 295.7434 15.06393067169863","CENTER_NAME":"EARTH","EPHEMERIS_TYPE":"0","OBJECT_TYPE":"PAYLOAD","RCS_SIZE":"LARGE"},{"TLE_LINE2":"2 44766  53.0516 145.8634 0001434  75.3979 284.7169 15.06404963169609","OBJECT_NAME":"STARLINK-1061","SITE":"AFETR","OBJECT_ID":"2019-074BF","EPOCH":"2022-12-10T18:51:53.697024","COUNTRY_CODE":"US","APOAPSIS":"548.191","MEAN_MOTION_DDOT":"0.0000000000000","ELEMENT_SET_NO":"999","RCS_SIZE":"LARGE","OBJECT_TYPE":"PAYLOAD","EPHEMERIS_TYPE":"0","CENTER_NAME":"EARTH","DECAY_DATE":null,"INCLINATION":"53.0516","CLASSIFICATION_TYPE":"U","BSTAR":"0.00030853000000","GP_ID":"219973683","SEMIMAJOR_AXIS":"6925.333","LAUNCH_DATE":"2019-11-11","TIME_SYSTEM":"UTC","REF_FRAME":"TEME","MEAN_MOTION":"15.06404963","RA_OF_ASC_NODE":"145.8634","REV_AT_EPOCH":"16960","PERIAPSIS":"546.205","MEAN_ANOMALY":"284.7169","MEAN_ELEMENT_THEORY":"SGP4","FILE":"3688965","MEAN_MOTION_DOT":"0.00004318","NORAD_CAT_ID":"44766","ECCENTRICITY":"0.00014340","TLE_LINE1":"1 44766U 19074BF  22344.78603816  .00004318  00000-0  30853-3 0  9990","PERIOD":"95.592","ARG_OF_PERICENTER":"75.3979"},{"RCS_SIZE":"LARGE","OBJECT_TYPE":"PAYLOAD","EPHEMERIS_TYPE":"0","CENTER_NAME":"EARTH","TLE_LINE2":"2 44767  53.0554 146.1957 0001326  53.4845 306.6266 15.06387331169592","SITE":"AFETR","OBJECT_NAME":"STARLINK-1062","OBJECT_ID":"2019-074BG","EPOCH":"2022-12-10T17:04:23.744352","COUNTRY_CODE":"US","APOAPSIS":"548.171","MEAN_MOTION_DDOT":"0.0000000000000","ELEMENT_SET_NO":"999","REV_AT_EPOCH":"16959","MEAN_ANOMALY":"306.6266","PERIAPSIS":"546.334","MEAN_ELEMENT_THEORY":"SGP4","NORAD_CAT_ID":"44767","FILE":"3688965","MEAN_MOTION_DOT":"0.00000265","ECCENTRICITY":"0.00013260","TLE_LINE1":"1 44767U 19074BG  22344.71138593  .00000265  00000-0  36664-4 0  9993","PERIOD":"95.593","ARG_OF_PERICENTER":"53.4845","DECAY_DATE":null,"INCLINATION":"53.0554","CLASSIFICATION_TYPE":"U","BSTAR":"0.00003666400000","GP_ID":"219973934","SEMIMAJOR_AXIS":"6925.387","LAUNCH_DATE":"2019-11-11","TIME_SYSTEM":"UTC","REF_FRAME":"TEME","RA_OF_ASC_NODE":"146.1957","MEAN_MOTION":"15.06387331"},{"MEAN_ANOMALY":"302.3316","PERIAPSIS":"545.642","REV_AT_EPOCH":"16960","MEAN_MOTION_DOT":"0.00000338","FILE":"3688965","NORAD_CAT_ID":"44768","MEAN_ELEMENT_THEORY":"SGP4","ECCENTRICITY":"0.00023130","ARG_OF_PERICENTER":"57.7897","TLE_LINE1":"1 44768U 19074BH  22344.73443134  .00000338  00000-0  41644-4 0  9991","PERIOD":"95.593","GP_ID":"219974184","BSTAR":"0.00004164400000","CLASSIFICATION_TYPE":"U","INCLINATION":"53.0553","DECAY_DATE":null,"TIME_SYSTEM":"UTC","LAUNCH_DATE":"2019-11-11","SEMIMAJOR_AXIS":"6925.379","RA_OF_ASC_NODE":"146.0908","MEAN_MOTION":"15.06390028","REF_FRAME":"TEME","RCS_SIZE":"LARGE","OBJECT_TYPE":"PAYLOAD","EPHEMERIS_TYPE":"0","CENTER_NAME":"EARTH","TLE_LINE2":"2 44768  53.0553 146.0908 0002313  57.7897 302.3316 15.06390028169606","OBJECT_ID":"2019-074BH","SITE":"AFETR","OBJECT_NAME":"STARLINK-1063","COUNTRY_CODE":"US","EPOCH":"2022-12-10T17:37:34.867776","ELEMENT_SET_NO":"999","MEAN_MOTION_DDOT":"0.0000000000000","APOAPSIS":"548.846"},{"EPHEMERIS_TYPE":"0","CENTER_NAME":"EARTH","RCS_SIZE":"LARGE","OBJECT_TYPE":"PAYLOAD","EPOCH":"2022-12-10T14:12:21.352320","COUNTRY_CODE":"US","APOAPSIS":"487.341","MEAN_MOTION_DDOT":"0.0000000000000","ELEMENT_SET_NO":"999","TLE_LINE2":"2 44770  53.0014 113.5070 0002368 217.9476 142.1354 15.26690701169990","OBJECT_NAME":"STARLINK-1065","SITE":"AFETR","OBJECT_ID":"2019-074BK","ECCENTRICITY":"0.00023680","PERIOD":"94.322","TLE_LINE1":"1 44770U 19074BK  22344.59191380  .00051784  00000-0  19458-2 0  9998","ARG_OF_PERICENTER":"217.9476","REV_AT_EPOCH":"16999","MEAN_ANOMALY":"142.1354","PERIAPSIS":"484.090","MEAN_ELEMENT_THEORY":"SGP4","FILE":"3688140","NORAD_CAT_ID":"44770","MEAN_MOTION_DOT":"0.00051784","SEMIMAJOR_AXIS":"6863.850","LAUNCH_DATE":"2019-11-11","TIME_SYSTEM":"UTC","REF_FRAME":"TEME","RA_OF_ASC_NODE":"113.5070","MEAN_MOTION":"15.26690701","DECAY_DATE":null,"INCLINATION":"53.0014","BSTAR":"0.00194580000000","CLASSIFICATION_TYPE":"U","GP_ID":"219929348"}];
